KUIPER-00125            
1 65954U 25228H   25310.98017791  .00014829  00000+0  44264-3 0  9997
2 65954  51.8780 192.8751 0005440 224.8203 135.2343 15.34826680  4926
KUIPER-00126            
1 65955U 25228J   25311.00003472 -.00778060  00000+0 -25801-1 0  9993
2 65955  51.8788 192.8430 0005533 248.4474 190.1028 15.33068526  4357
KUIPER-00127            
1 65956U 25228K   25310.91009626  .00016578  00000+0  48856-3 0  9994
2 65956  51.8783 193.1616 0005836 216.2122 143.8469 15.35137907  4910
KUIPER-00128            
1 65957U 25228L   25310.97860455  .00026070  00000+0  76600-3 0  9992
2 65957  51.8789 192.8738 0005486 221.0786 138.9787 15.34934646  4922
KUIPER-00129            
1 65958U 25228M   25310.78265398  .02156696  00000+0  53446-1 0  9998
2 65958  51.8780 193.8093 0009583 218.5310 141.4994 15.36535026  4891
KUIPER-00130            
1 65959U 25228N   25310.91650937  .00027661  00000+0  81655-3 0  9993
2 65959  51.8785 193.1986 0004940 231.3502 128.7042 15.34756670  4912
KUIPER-00134            
1 65960U 25228P   25310.91811553  .00015516  00000+0  46530-3 0  9997
2 65960  51.8782 193.2090 0004988 236.0615 123.9897 15.34643896  4917
KUIPER-00135            
1 65961U 25228Q   25310.91779337  .00021826  00000+0  64967-3 0  9996
2 65961  51.8795 193.2153 0004938 222.4587 137.6017 15.34633274  4919
